NORAD_CAT_ID,OBJECT_NAME,OBJECT_TYPE,EPOCH,MEAN_MOTION,ECCENTRICITY,INCLINATION,RA_OF_ASC_NODE,ARG_OF_PERICENTER,MEAN_ANOMALY,BSTAR,MEAN_MOTION_DOT,MEAN_MOTION_DDOT,TLE_LINE0,TLE_LINE1,TLE_LINE2,SEMIMAJOR_AXIS,PERIOD,APOGEE,PERIGEE,DECAYED
50185.0,STARLINK-3279,PAYLOAD,2024-04-04 22:37:07,15.088543,0.0001116,53.216,168.4048,90.2257,269.8863,0.00090565,0.0001416,0.0,0 STARLINK-3279,1 50185U 21125AF  24095.94245102  .00014160  00000-0  90565-3 0  9997,2 50185  53.2160 168.4048 0001116  90.2257 269.8863 15.08854300130362,6917.837,95.437,540.474,538.93,0.0
50185.0,STARLINK-3279,PAYLOAD,2024-04-05 11:20:12,15.08847653,0.0001399,53.2173,166.0255,101.8415,258.2735,0.00016667,2.366e-05,0.0,0 STARLINK-3279,1 50185U 21125AF  24096.47237008  .00002366  00000-0  16667-3 0  9998,2 50185  53.2173 166.0255 0001399 101.8415 258.2735 15.08847653129965,6917.857,95.437,540.69,538.754,0.0
50185.0,STARLINK-3279,PAYLOAD,2024-04-06 11:10:59,15.08839866,0.0001271,53.2157,161.5659,93.5473,266.5665,8.9393e-05,1.135e-05,0.0,0 STARLINK-3279,1 50185U 21125AF  24097.46597190  .00001135  00000-0  89393-4 0  9999,2 50185  53.2157 161.5659 0001271  93.5473 266.5665 15.08839866130115,6917.881,95.438,540.625,538.867,0.0
50185.0,STARLINK-3279,PAYLOAD,2024-04-06 20:43:18,15.08843561,0.000127,53.2156,159.7819,93.137,266.9767,8.0526e-05,9.94e-06,0.0,0 STARLINK-3279,1 50185U 21125AF  24097.86340932  .00000994  00000-0  80526-4 0  9994,2 50185  53.2156 159.7819 0001270  93.1370 266.9767 15.08843561130655,6917.87,95.437,540.613,538.856,0.0
50185.0,STARLINK-3279,PAYLOAD,2024-04-07 09:26:25,15.08827786,0.0001496,53.2179,157.4039,93.3186,266.7977,-5.7192e-05,-1.198e-05,0.0,0 STARLINK-3279,1 50185U 21125AF  24098.39334560 -.00001198  00000-0 -57192-4 0  9995,2 50185  53.2179 157.4039 0001496  93.3186 266.7977 15.08827786130254,6917.918,95.438,540.818,538.748,0.0
50185.0,STARLINK-3279,PAYLOAD,2024-04-07 11:01:48,15.08827663,0.0001498,53.2185,157.1076,91.4439,268.6724,-3.4213e-05,-8.32e-06,0.0,0 STARLINK-3279,1 50185U 21125AF  24098.45958550 -.00000832  00000-0 -34213-4 0  9996,2 50185  53.2185 157.1076 0001498  91.4439 268.6724 15.08827663130740,6917.918,95.438,540.819,538.747,0.0
50185.0,STARLINK-3279,PAYLOAD,2024-04-07 20:34:06,15.08834613,0.0001417,53.217,155.3216,99.1788,260.9364,1.495e-05,-5e-07,0.0,0 STARLINK-3279,1 50185U 21125AF  24098.85702069 -.00000050  00000-0  14950-4 0  9999,2 50185  53.2170 155.3216 0001417  99.1788 260.9364 15.08834613130325,6917.897,95.438,540.742,538.782,0.0
50185.0,STARLINK-3279,PAYLOAD,2024-04-08 09:17:11,15.08836459,0.0001565,53.2186,152.9435,103.5945,256.5221,0.00010976,1.459e-05,0.0,0 STARLINK-3279,1 50185U 21125AF  24099.38693955  .00001459  00000-0  10976-3 0  9997,2 50185  53.2186 152.9435 0001565 103.5945 256.5221 15.08836459130881,6917.891,95.438,540.839,538.674,0.0
50185.0,STARLINK-3279,PAYLOAD,2024-04-08 20:24:53,15.08847874,0.0001556,53.2184,150.8609,93.0668,267.0502,8.6733e-05,1.093e-05,0.0,0 STARLINK-3279,1 50185U 21125AF  24099.85061353  .00001093  00000-0  86733-4 0  9999,2 50185  53.2184 150.8609 0001556  93.0668 267.0502 15.08847874130471,6917.856,95.437,540.798,538.645,0.0
50185.0,STARLINK-3279,PAYLOAD,2024-04-09 09:07:58,15.08839071,0.0001539,53.2182,148.4815,91.3367,268.7801,0.00016674,2.367e-05,0.0,0 STARLINK-3279,1 50185U 21125AF  24100.38053979  .00002367  00000-0  16674-3 0  9996,2 50185  53.2182 148.4815 0001539  91.3367 268.7801 15.08839071130558,6917.883,95.438,540.813,538.684,0.0
50185.0,STARLINK-3279,PAYLOAD,2024-04-09 20:15:40,15.08846779,0.0001588,53.2185,146.4,88.9475,271.1699,0.00019578,2.83e-05,0.0,0 STARLINK-3279,1 50185U 21125AF  24100.84421457  .00002830  00000-0  19578-3 0  9998,2 50185  53.2185 146.4000 0001588  88.9475 271.1699 15.08846779131109,6917.86,95.437,540.823,538.626,0.0
50185.0,STARLINK-3279,PAYLOAD,2024-04-10 12:09:31,15.08844499,0.0001312,53.2164,143.4237,97.6195,262.4946,3.9449e-05,3.4e-06,0.0,0 STARLINK-3279,1 50185U 21125AF  24101.50661655  .00000340  00000-0  39449-4 0  9992,2 50185  53.2164 143.4237 0001312  97.6195 262.4946 15.08844499130728,6917.867,95.437,540.639,538.824,0.0
50185.0,STARLINK-3279,PAYLOAD,2024-04-10 20:06:26,15.0885031,0.0001428,53.2169,141.9373,92.037,268.0786,5.7583e-05,6.29e-06,0.0,0 STARLINK-3279,1 50185U 21125AF  24101.83781102  .00000629  00000-0  57583-4 0  9997,2 50185  53.2169 141.9373 0001428  92.0370 268.0786 15.08850310131251,6917.849,95.437,540.702,538.726,0.0
50185.0,STARLINK-3279,PAYLOAD,2024-04-11 08:49:32,15.08839888,0.0001661,53.2187,139.5606,95.4174,264.7007,1.3295e-05,-7.6e-07,0.0,0 STARLINK-3279,1 50185U 21125AF  24102.36773925 -.00000076  00000-0  13295-4 0  9999,2 50185  53.2187 139.5606 0001661  95.4174 264.7007 15.08839888130852,6917.881,95.438,540.895,538.597,0.0
50185.0,STARLINK-3279,PAYLOAD,2024-04-11 19:57:14,15.08841395,0.0001672,53.2185,137.4762,99.3843,260.7338,-1.6781e-06,-3.15e-06,0.0,0 STARLINK-3279,1 50185U 21125AF  24102.83141731 -.00000315  00000-0 -16781-5 0  9996,2 50185  53.2185 137.4762 0001672  99.3843 260.7338 15.08841395131409,6917.876,95.437,540.898,538.584,0.0
50185.0,STARLINK-3279,PAYLOAD,2024-04-12 08:40:19,15.08838634,0.0001615,53.2178,135.0972,104.3072,255.8099,7.8713e-06,-1.63e-06,0.0,0 STARLINK-3279,1 50185U 21125AF  24103.36133837 -.00000163  00000-0  78713-5 0  9996,2 50185  53.2178 135.0972 0001615 104.3072 255.8099 15.08838634131485,6917.885,95.438,540.867,538.632,0.0
50185.0,STARLINK-3279,PAYLOAD,2024-04-13 05:20:20,15.08834407,0.0001517,53.2173,131.2317,99.0434,261.073,6.0606e-05,6.77e-06,0.0,0 STARLINK-3279,1 50185U 21125AF  24104.22246165  .00000677  00000-0  60606-4 0  9991,2 50185  53.2173 131.2317 0001517  99.0434 261.0730 15.08834407131131,6917.897,95.438,540.812,538.713,0.0
50185.0,STARLINK-3279,PAYLOAD,2024-04-13 11:41:53,15.08834266,0.0001452,53.2172,130.0435,95.7816,264.3342,1.4963e-05,-5e-07,0.0,0 STARLINK-3279,1 50185U 21125AF  24104.48742422 -.00000050  00000-0  14963-4 0  9997,2 50185  53.2172 130.0435 0001452  95.7816 264.3342 15.08834266131658,6917.898,95.438,540.767,538.758,0.0
50185.0,STARLINK-3279,PAYLOAD,2024-04-14 08:21:53,15.08842431,0.0001369,53.2167,126.1794,97.9815,262.1333,0.00011822,1.594e-05,0.0,0 STARLINK-3279,1 50185U 21125AF  24105.34853804  .00001594  00000-0  11822-3 0  9993,2 50185  53.2167 126.1794 0001369  97.9815 262.1333 15.08842431131307,6917.873,95.437,540.685,538.791,0.0
50185.0,STARLINK-3279,PAYLOAD,2024-04-15 05:01:54,15.08838,0.0001477,53.2171,122.3144,116.945,243.1693,8.8699e-05,1.124e-05,0.0,0 STARLINK-3279,1 50185U 21125AF  24106.20966157  .00001124  00000-0  88699-4 0  9991,2 50185  53.2171 122.3144 0001477 116.9450 243.1693 15.08838000131435,6917.887,95.438,540.773,538.73,0.0
50185.0,STARLINK-3279,PAYLOAD,2024-04-15 08:12:41,15.08832954,0.0001318,53.2166,121.7185,109.9575,250.1559,2.5256e-05,1.14e-06,0.0,0 STARLINK-3279,1 50185U 21125AF  24106.34214672  .00000114  00000-0  25256-4 0  9992,2 50185  53.2166 121.7185 0001318 109.9575 250.1559 15.08832954131454,6917.902,95.438,540.679,538.855,0.0
50185.0,STARLINK-3279,PAYLOAD,2024-04-16 11:14:14,15.08850255,0.000125,53.217,116.6624,99.6083,260.505,1.5538e-05,-4.1e-07,0.0,0 STARLINK-3279,1 50185U 21125AF  24107.46821828 -.00000041  00000-0  15538-4 0  9995,2 50185  53.2170 116.6624 0001250  99.6083 260.5050 15.08850255131628,6917.849,95.437,540.579,538.849,0.0
50185.0,STARLINK-3279,PAYLOAD,2024-04-17 04:43:29,15.08834248,0.000133,53.2172,113.3895,86.4907,273.6237,9.1e-05,1.16e-05,0.0,0 STARLINK-3279,1 50185U 21125AF  24108.19686799  .00001160  00000-0  91000-4 0  9992,2 50185  53.2172 113.3895 0001330  86.4907 273.6237 15.08834248131730,6917.898,95.438,540.683,538.843,0.0
50185.0,STARLINK-3279,PAYLOAD,2024-04-17 07:54:15,15.08831068,0.0001112,53.2165,112.7962,95.0079,265.104,7.6389e-05,9.28e-06,0.0,0 STARLINK-3279,1 50185U 21125AF  24108.32935003  .00000928  00000-0  76389-4 0  9996,2 50185  53.2165 112.7962 0001112  95.0079 265.1040 15.08831068132235,6917.908,95.438,540.542,539.003,0.0
50185.0,STARLINK-3279,PAYLOAD,2024-04-18 09:20:25,15.08840822,0.0001269,53.217,108.0355,89.2882,270.8256,3.4131e-05,2.55e-06,0.0,0 STARLINK-3279,1 50185U 21125AF  24109.38918907  .00000255  00000-0  34131-4 0  9999,2 50185  53.2170 108.0355 0001269  89.2882 270.8256 15.08840822131919,6917.878,95.438,540.621,538.865,0.0
50185.0,STARLINK-3279,PAYLOAD,2024-04-19 09:11:12,15.08840062,0.0001323,53.2166,103.5756,79.8548,280.2594,0.00014688,2.05e-05,0.0,0 STARLINK-3279,1 50185U 21125AF  24110.38278868  .00002050  00000-0  14688-3 0  9995,2 50185  53.2166 103.5756 0001323  79.8548 280.2594 15.08840062132540,6917.88,95.438,540.66,538.83,0.0
50185.0,STARLINK-3279,PAYLOAD,2024-04-20 04:15:49,15.08852784,0.0001459,53.2181,100.0082,97.5326,262.5832,0.00016731,2.377e-05,0.0,0 STARLINK-3279,1 50185U 21125AF  24111.17765829  .00002377  00000-0  16731-3 0  9994,2 50185  53.2181 100.0082 0001459  97.5326 262.5832 15.08852784132184,6917.841,95.437,540.716,538.697,0.0
50185.0,STARLINK-3279,PAYLOAD,2024-04-20 05:51:12,15.08855516,0.0001504,53.2175,99.7109,92.2635,267.8529,0.00019656,2.843e-05,0.0,0 STARLINK-3279,1 50185U 21125AF  24111.24389627  .00002843  00000-0  19656-3 0  9997,2 50185  53.2175  99.7109 0001504  92.2635 267.8529 15.08855516132678,6917.833,95.437,540.738,538.658,0.0
50185.0,STARLINK-3279,PAYLOAD,2024-04-21 04:06:38,15.08815311,0.0001449,53.2166,95.5472,113.7266,246.3878,-0.000389,-6.469e-05,0.0,0 STARLINK-3279,1 50185U 21125AF  24112.17127707 -.00006469  00000-0 -38900-3 0  9992,2 50185  53.2166  95.5472 0001449 113.7266 246.3878 15.08815311132333,6917.956,95.439,540.823,538.818,0.0
50185.0,STARLINK-3279,PAYLOAD,2024-04-21 05:42:01,15.08816099,0.000151,53.2168,95.2499,116.3697,243.7451,-0.00036995,-6.167e-05,0.0,0 STARLINK-3279,1 50185U 21125AF  24112.23751740 -.00006167  00000-0 -36995-3 0  9996,2 50185  53.2168  95.2499 0001510 116.3697 243.7451 15.08816099132823,6917.953,95.439,540.863,538.774,0.0
